NAVSTAR 77 (USA 289)    
1 43873U 18109A   23346.57275825  .00000052  00000+0  00000+0 0  9998
2 43873  55.2294 128.4436 0027852 190.5292 132.0358  2.00571850 36665
